ONEWEB-0224             
1 48794U 21045AD  23059.26745918  .00000091  00000+0  20749-3 0  9999
2 48794  87.9173 139.0510 0002253 119.1795 240.9561 13.15546692 85858
ONEWEB-0224             
1 48794U 21045AD  23059.26745918  .00000091  00000+0  20749-3 0  9999
2 48794  87.9173 139.0510 0002253 119.1795 240.9561 13.15546692 86972
ONEWEB-0224             
1 48794U 21045AD  23059.72380292  .00000020  00000+0  19171-4 0  9990
2 48794  87.9172 138.9609 0002257 119.3120 240.8236 13.15547402 85917
ONEWEB-0224             
1 48794U 21045AD  23060.25620463 -.00000049  00000+0 -16306-3 0  9996
2 48794  87.9172 138.8557 0002296 118.5291 241.6070 13.15547457 85983
ONEWEB-0224             
1 48794U 21045AD  23061.16889294 -.00000014  00000+0 -72293-4 0  9996
2 48794  87.9171 138.6754 0002315 117.8282 242.3083 13.15547454 87221
ONEWEB-0224             
1 48794U 21045AD  23061.62523826 -.00000149  00000+0 -42895-3 0  9996
2 48794  87.9168 138.5848 0002349 117.6158 242.5211 13.15546754 86166
ONEWEB-0224             
1 48794U 21045AD  23062.23369670 -.00000064  00000+0 -20306-3 0  9998
2 48794  87.9171 138.4648 0002344 117.1266 243.0104 13.15547496 86247
ONEWEB-0224             
1 48794U 21045AD  23062.23369670 -.00000064  00000+0 -20306-3 0  9998
2 48794  87.9171 138.4648 0002344 117.1266 243.0104 13.15547496 87361
ONEWEB-0224             
1 48794U 21045AD  23062.61398376 -.00000079  00000+0 -24362-3 0  9997
2 48794  87.9171 138.3897 0002356 116.8507 243.2864 13.15547685 86299
